ONEWEB-0264             
1 48982U 21060R   23309.81422710 -.00000059  00000+0 -18893-3 0  9999
2 48982  87.9083  58.7281 0001615  99.8957 260.2356 13.16595559115302
ONEWEB-0266             
1 48984U 21060T   23309.60839063  .00000028  00000+0  38422-4 0  9996
2 48984  87.9082  58.7538 0001563 105.7089 254.4214 13.16593461113972
ONEWEB-0267             
1 48985U 21060U   23309.54296005  .00000132  00000+0  31100-3 0  9994
2 48985  87.9080  58.7679 0001516  84.6485 275.4819 13.16593771113978
ONEWEB-0268             
1 48986U 21060V   23309.58727713 -.00000125  00000+0 -36145-3 0  9992
2 48986  87.9080  58.7628 0001608  98.5346 261.5967 13.16590637114244
ONEWEB-0269             
1 48987U 21060W   23309.79626685 -.00000081  00000+0 -24554-3 0  9994
2 48987  87.9075  58.7476 0001688 101.0988 259.0333 13.16592516115349
ONEWEB-0270             
1 48988U 21060X   23309.58517229  .00000055  00000+0  10899-3 0  9991
2 48988  87.9078  58.7757 0000992  89.3670 270.7575 13.16594179114050
ONEWEB-0271             
1 48989U 21060Y   23309.80049724 -.00000055  00000+0 -17805-3 0  9993
2 48989  87.9077  58.7081 0001368  85.6806 274.4481 13.16594731115375
ONEWEB-0272             
1 48990U 21060Z   23309.59573452  .00000204  00000+0  50026-3 0  9997
2 48990  87.9081  58.7740 0001473  90.4859 269.6441 13.16594417114005
